CTC1_L_00559001-01
1 10000U 25386X   26075.70038194  .00000000  00000+0  00000-0 0  9996
2 10000  97.9000   0.0000 0000000   0.0000   0.0000 14.75047655    13
CTC1_L_00559002-01
1 10001U 24532RT  26075.70038194  .00000000  00000+0  00000-0 0  9999
2 10001  97.9000  12.0000 0000000   0.0000  48.0000 14.75047655    19
CTC1_L_00559003-01
1 10002U 22631OX  26075.70038194  .00000000  00000+0  00000-0 0  9998
2 10002  97.9000  24.0000 0000000   0.0000  96.0000 14.75047655    16
CTC1_L_00559004-01
1 10003U 22796FW  26075.70038194  .00000000  00000+0  00000-0 0  9991
2 10003  97.9000  36.0000 0000000   0.0000 144.0000 14.75047655    14
CTC1_L_00559005-01
1 10004U 26854PI  26075.70038194  .00000000  00000+0  00000-0 0  9991
2 10004  97.9000  48.0000 0000000   0.0000 192.0000 14.75047655    11
CTC1_L_00559006-01
1 10005U 24701IW  26075.70038194  .00000000  00000+0  00000-0 0  9991
2 10005  97.9000  60.0000 0000000   0.0000 240.0000 14.75047655    10
CTC1_L_00559007-01
1 10006U 23600UE  26075.70038194  .00000000  00000+0  00000-0 0  9999
2 10006  97.9000  72.0000 0000000   0.0000 288.0000 14.75047655    16
CTC1_L_00559008-01
1 10007U 24845GS  26075.70038194  .00000000  00000+0  00000-0 0  9992
2 10007  97.9000  84.0000 0000000   0.0000 336.0000 14.75047655    14
CTC1_L_00559009-01
1 10008U 22707AG  26075.70038194  .00000000  00000+0  00000-0 0  9998
2 10008  97.9000  96.0000 0000000   0.0000  24.0000 14.75047655    12
CTC1_L_00559010-01
1 10009U 22655DC  26075.70038194  .00000000  00000+0  00000-0 0  9991
2 10009  97.9000 108.0000 0000000   0.0000  72.0000 14.75047655    10
CTC1_L_00559011-01
1 10010U 23961RH  26075.70038194  .00000000  00000+0  00000-0 0  9994
2 10010  97.9000 120.0000 0000000   0.0000 120.0000 14.75047655    10
CTC1_L_00559012-01
1 10011U 26414EG  26075.70038194  .00000000  00000+0  00000-0 0  9991
2 10011  97.9000 132.0000 0000000   0.0000 168.0000 14.75047655    16
CTC1_L_00559013-01
1 10012U 23559YZ  26075.70038194  .00000000  00000+0  00000-0 0  9999
2 10012  97.9000 144.0000 0000000   0.0000 216.0000 14.75047655    14
CTC1_L_00559014-01
1 10013U 24262IX  26075.70038194  .00000000  00000+0  00000-0 0  9992
2 10013  97.9000 156.0000 0000000   0.0000 264.0000 14.75047655    11
CTC1_L_00559015-01
1 10014U 25105GL  26075.70038194  .00000000  00000+0  00000-0 0  9990
2 10014  97.9000 168.0000 0000000   0.0000 312.0000 14.75047655    19
CTC1_L_00559016-01
1 10015U 26121KB  26075.70038194  .00000000  00000+0  00000-0 0  9990
2 10015  97.9000 180.0000 0000000   0.0000   0.0000 14.75047655    18
CTC1_L_00559017-01
1 10016U 25225JU  26075.70038194  .00000000  00000+0  00000-0 0  9995
2 10016  97.9000 192.0000 0000000   0.0000  48.0000 14.75047655    14
CTC1_L_00559018-01
1 10017U 26205VR  26075.70038194  .00000000  00000+0  00000-0 0  9995
2 10017  97.9000 204.0000 0000000   0.0000  96.0000 14.75047655    12
CTC1_L_00559019-01
1 10018U 23199HZ  26075.70038194  .00000000  00000+0  00000-0 0  9995
2 10018  97.9000 216.0000 0000000   0.0000 144.0000 14.75047655    10
CTC1_L_00559020-01
1 10019U 24895J   26075.70038194  .00000000  00000+0  00000-0 0  9990
2 10019  97.9000 228.0000 0000000   0.0000 192.0000 14.75047655    17
CTC1_L_00559021-01
1 10020U 25412JB  26075.70038194  .00000000  00000+0  00000-0 0  9998
2 10020  97.9000 240.0000 0000000   0.0000 240.0000 14.75047655    17
CTC1_L_00559022-01
1 10021U 22513IG  26075.70038194  .00000000  00000+0  00000-0 0  9998
2 10021  97.9000 252.0000 0000000   0.0000 288.0000 14.75047655    13
CTC1_L_00559023-01
1 10022U 26601FG  26075.70038194  .00000000  00000+0  00000-0 0  9991
2 10022  97.9000 264.0000 0000000   0.0000 336.0000 14.75047655    11
CTC1_L_00559024-01
1 10023U 24246HK  26075.70038194  .00000000  00000+0  00000-0 0  9995
2 10023  97.9000 276.0000 0000000   0.0000  24.0000 14.75047655    19
CTC1_L_00559025-01
1 10024U 26694KF  26075.70038194  .00000000  00000+0  00000-0 0  9995
2 10024  97.9000 288.0000 0000000   0.0000  72.0000 14.75047655    16
CTC1_L_00559026-01
1 10025U 23239WU  26075.70038194  .00000000  00000+0  00000-0 0  9998
2 10025  97.9000 300.0000 0000000   0.0000 120.0000 14.75047655    16
CTC1_L_00559027-01
1 10026U 25069DU  26075.70038194  .00000000  00000+0  00000-0 0  9992
2 10026  97.9000 312.0000 0000000   0.0000 168.0000 14.75047655    12
CTC1_L_00559028-01
1 10027U 25374OG  26075.70038194  .00000000  00000+0  00000-0 0  9992
2 10027  97.9000 324.0000 0000000   0.0000 216.0000 14.75047655    10
CTC1_L_00559029-01
1 10028U 24343AH  26075.70038194  .00000000  00000+0  00000-0 0  9998
2 10028  97.9000 336.0000 0000000   0.0000 264.0000 14.75047655    17
CTC1_L_00559030-01
1 10029U 24968BN  26075.70038194  .00000000  00000+0  00000-0 0  9992
2 10029  97.9000 348.0000 0000000   0.0000 312.0000 14.75047655    15
